OBJECT_NAME,OBJECT_ID,EPOCH,MEAN_MOTION,ECCENTRICITY,INCLINATION,RA_OF_ASC_NODE,ARG_OF_PERICENTER,MEAN_ANOMALY,EPHEMERIS_TYPE,CLASSIFICATION_TYPE,NORAD_CAT_ID,ELEMENT_SET_NO,REV_AT_EPOCH,BSTAR,MEAN_MOTION_DOT,MEAN_MOTION_DDOT
PERSEUS-M1,2014-033AF,2026-06-25T19:12:28.861056,14.95660102,.0009802,97.9648,121.0735,268.9220,91.0877,0,U,40039,999,65192,.18355E-3,.1981E-4,0
POLYITAN-1,2014-033AJ,2026-06-25T14:25:19.997760,15.33535945,.0008872,98.0941,203.6586,118.2869,241.9268,0,U,40042,999,65488,.73319E-3,.23755E-3,0
TIGRISAT,2014-033AK,2026-06-25T17:45:04.485600,14.85191236,.0050178,97.7840,326.5556,47.8040,312.7418,0,U,40043,999,64689,.21357E-3,.1816E-4,0
AEROCUBE 6A,2014-033AM,2026-06-25T16:57:07.788096,14.98175913,.003828,97.7234,343.5661,348.4826,11.5517,0,U,40045,999,64789,.43359E-3,.516E-4,0
AEROCUBE 6B,2014-033AN,2026-06-25T16:48:32.488128,14.99639437,.0037784,97.7232,343.3693,339.5695,20.4014,0,U,40046,999,64803,.44228E-3,.5469E-4,0
CANX-4,2014-034C,2026-06-25T14:17:46.061664,14.81278652,.0012516,98.3112,52.2170,350.4550,9.6421,0,U,40055,999,64577,.12133E-3,.89E-5,0
CANX-5,2014-034D,2026-06-25T14:15:22.229856,14.81295937,.001252,98.3115,52.2594,350.6601,9.4375,0,U,40056,999,63658,.12201E-3,.895E-5,0
UKUBE-1,2014-037F,2026-06-25T13:32:08.852640,15.13673533,.0002994,98.4236,180.7162,120.0647,240.0878,0,U,40074,999,64982,.59185E-3,.10578E-3,0
BRITE-PL2 (HEWELIUSZ),2014-049B,2026-06-25T12:58:55.428384,14.94624267,.0015424,97.9105,288.6055,83.0154,277.2819,0,U,40119,999,64269,.1818E-3,.1913E-4,0
AEROCUBE 5C,2015-058B,2026-06-25T11:38:49.570080,14.91484743,.0131151,64.7654,236.7748,60.0454,301.3604,0,U,40965,999,36689,.17759E-3,.1921E-4,0
AEROCUBE 7,2015-058C,2026-06-25T12:35:39.595776,14.95769117,.0120888,64.7609,218.6998,58.3877,302.8967,0,U,40966,999,36720,.27909E-3,.3433E-4,0
FOX-1A (AO-85),2015-058D,2026-06-25T14:27:49.328064,14.91002790,.0130949,64.7749,252.8304,53.3196,307.9866,0,U,40967,999,11482,.21247E-3,.2302E-4,0
SINOD-D 1,2015-058E,2026-06-25T13:38:43.932192,14.95949961,.011961,64.7740,232.6646,49.7671,311.3833,0,U,40968,999,11791,.26676E-3,.3279E-4,0
SNAP-3 ALICE,2015-058G,2026-06-25T19:44:16.484928,15.62198098,.0025234,64.7505,74.0406,6.6672,353.4805,0,U,40970,999,11823,.17284E-2,.158199E-2,0
LMRST-SAT,2015-058H,2026-06-25T15:03:09.992736,14.90620494,.0132548,64.7744,249.1084,55.3391,306.0130,0,U,40971,999,11481,.1729E-3,.1826E-4,0
SNAP-3 EDDIE,2015-058J,2026-06-25T20:52:01.038144,15.63427584,.0025546,64.7418,64.5357,9.8604,350.3039,0,U,40972,999,12038,.15564E-2,.149378E-2,0
PROPCUBE 3,2015-058K,2026-06-25T13:48:10.844928,14.94295780,.0124487,64.7673,226.3279,56.5972,304.6977,0,U,40973,999,11605,.24535E-3,.2899E-4,0
BISONSAT,2015-058L,2026-06-25T20:54:28.581696,15.16396858,.0080113,64.7573,145.5636,43.7475,316.9960,0,U,40974,999,11693,.79788E-3,.16735E-3,0
SNAP-3 JIMI,2015-058M,2026-06-25T09:02:53.658816,15.02366223,.0106611,64.7632,193.8587,52.0629,309.0065,0,U,40975,999,11545,.42351E-3,.6176E-4,0
PROPCUBE 1 (FLORA),2015-058N,2026-06-25T15:46:07.281408,14.89254859,.0131207,64.7749,268.9851,57.6197,303.7532,0,U,40976,999,11752,.2125E-3,.2194E-4,0
SINOD-D 3,2015-058P,2026-06-25T19:24:54.130176,14.94060515,.0119753,64.7720,248.8953,54.7010,306.5233,0,U,40977,999,11604,.2588E-3,.3013E-4,0
HORYU-4,2016-012D,2026-06-25T20:32:45.078720,16.06185976,.0008742,30.9835,14.9564,324.3130,35.6949,0,U,41340,999,57220,.13388E-2,.1047123E-1,.58042E-3
RAVAN,2016-067B,2026-06-25T15:59:37.519008,15.55471145,.0002862,97.9880,67.2219,1.1695,358.9564,0,U,41849,999,52901,.89317E-3,.61198E-3,0
CELTEE 1,2016-067C,2026-06-25T13:39:37.056960,15.19757723,.0001423,98.0670,43.7080,129.0857,231.0503,0,U,41850,999,52715,.29894E-3,.6317E-4,0
OPTICUBE 04,2016-067D,2026-06-25T13:30:53.365824,15.09692565,.0017027,98.0695,29.2835,89.4863,270.8316,0,U,41851,999,52643,.13067E-3,.204E-4,0
AEROCUBE 8D,2016-067E,2026-06-25T14:57:08.028576,15.24506857,.0005043,98.0680,47.4361,102.8453,257.3346,0,U,41852,999,52735,.37255E-3,.9086E-4,0
AEROCUBE 8C,2016-067F,2026-06-25T13:56:37.289760,15.24756224,.0006131,98.0550,44.6077,46.0158,314.1582,0,U,41853,999,52734,.39225E-3,.9645E-4,0
CORVUS BC2,2017-042X,2026-06-25T10:22:08.046912,15.06345732,.0014762,97.4072,337.4619,85.1086,275.1826,0,U,42846,999,48830,.22071E-3,.3195E-4,0
CORVUS BC1,2017-042Y,2026-06-25T16:35:38.184288,15.06510053,.0013228,97.4098,338.5308,63.4485,296.8097,0,U,42847,999,48837,.19795E-3,.287E-4,0
MAKERSAT 0,2017-073D,2026-06-24T10:17:55.746816,15.32301022,.01048473,97.4622,58.0052,246.7219,112.2959,0,U,43016,999,46757,.42577588E-3,.15733E-3,0
